ONEWEB-0607             
1 54671U 22166AF  26011.43473553  .00000041  00000+0  67527-4 0  9999
2 54671  87.9220 275.2355 0001778  73.8479 286.2851 13.21825598150836
ONEWEB-0608             
1 54672U 22166AG  26011.13852888  .00000157  00000+0  34753-3 0  9991
2 54672  87.9229 275.2843 0002148  80.3446 279.7930 13.21827971150806
ONEWEB-0610             
1 54673U 22166AH  26011.42156377  .00000091  00000+0  18789-3 0  9992
2 54673  87.9218 275.2579 0002203  78.3383 281.7998 13.21828161150742
ONEWEB-0611             
1 54674U 22166AJ  26011.64207770 -.00000026  00000+0 -93957-4 0  9992
2 54674  87.9221 275.2103 0001410  71.7537 288.3751 13.21825398150768
ONEWEB-0612             
1 54675U 22166AK  26011.65524429 -.00000026  00000+0 -93740-4 0  9997
2 54675  87.9223 275.1873 0001768  75.3691 284.7639 13.21825064150755
ONEWEB-0615             
1 54676U 22166AL  26011.48409913 -.00000026  00000+0 -94370-4 0  9999
2 54676  87.9222 275.2485 0001634  75.1354 284.9961 13.21825084150742
ONEWEB-0655             
1 54677U 22166AM  26011.45942159  .00000070  00000+0  13678-3 0  9999
2 54677  87.9219 275.2565 0001784  67.6029 292.5293 13.21825391150732
ONEWEB-0659             
1 54678U 22166AN  26011.47587243  .00000012  00000+0 -25001-5 0  9993
2 54678  87.9221 275.2537 0001522  77.9780 282.1525 13.21825263150824
